NORAD_CAT_ID,OBJECT_NAME,OBJECT_TYPE,EPOCH,MEAN_MOTION,ECCENTRICITY,INCLINATION,RA_OF_ASC_NODE,ARG_OF_PERICENTER,MEAN_ANOMALY,BSTAR,MEAN_MOTION_DOT,MEAN_MOTION_DDOT,TLE_LINE0,TLE_LINE1,TLE_LINE2,SEMIMAJOR_AXIS,PERIOD,APOGEE,PERIGEE,DECAYED
53603.0,STARLINK-4692,PAYLOAD,2022-09-02 14:00:01,15.88549502,0.0034199,53.2169,261.3323,57.5367,183.0219,-0.0043896,-0.01314738,0.00048687,0 STARLINK-4692,1 53603U 22104R   22245.58334491 -.01314738  48687-3 -43896-2 0  9995,2 53603  53.2169 261.3323 0034199  57.5367 183.0219 15.88549502   881,6684.486,90.649,329.211,283.491,0.0
53603.0,STARLINK-4692,PAYLOAD,2022-09-03 06:00:00,15.86774457,0.0026728999999999,53.2178,257.9607,58.43899999999999,34.8262,-0.0045863,-0.01232537,0.00042586,0 STARLINK-4692,1 53603U 22104R   22246.25001157 -.01232537  42586-3 -45863-2 0  9994,2 53603  53.2178 257.9607 0026729  58.4390  34.8262 15.86774457   993,6689.47,90.75,329.215,293.455,0.0
53603.0,STARLINK-4692,PAYLOAD,2022-09-03 14:00:01,15.85934828,0.0024239,53.2169,256.2796,58.3807,139.6556,-0.0050343,-0.0129048,0.00045951,0 STARLINK-4692,1 53603U 22104R   22246.58334491 -.01290480  45951-3 -50343-2 0  9999,2 53603  53.2169 256.2796 0024239  58.3807 139.6556 15.85934828  1305,6691.831,90.798,329.916,297.475,0.0
53603.0,STARLINK-4692,PAYLOAD,2022-09-03 20:00:01,15.85318053,0.0021609999999999,53.2174,255.0183,57.4216,128.4988,-0.0054227,-0.01187056,0.0,0 STARLINK-4692,1 53603U 22104R   22246.83334491 -.01187056  00000-0 -54227-2 0  9999,2 53603  53.2174 255.0183 0021610  57.4216 128.4988 15.85318053  1088,6693.566,90.834,329.896,300.967,0.0
53603.0,STARLINK-4692,PAYLOAD,2022-09-03 22:00:00,15.85112341,0.0020558,53.2172,254.5982,57.1195,244.6346,-0.0055938,-0.01206585,0.0,0 STARLINK-4692,1 53603U 22104R   22246.91667824 -.01206585  00000-0 -55938-2 0  9996,2 53603  53.2172 254.5982 0020558  57.1195 244.6346 15.85112341  1306,6694.145,90.845,329.772,302.249,0.0
53603.0,STARLINK-4692,PAYLOAD,2022-09-04 06:00:00,15.84179989,0.0017044,53.2175,252.9215,58.124,346.358,-0.005409,-0.011182,0.0,0 STARLINK-4692,1 53603U 22104R   22247.25001157 -.01118200  00000-0 -54090-2 0  9999,2 53603  53.2175 252.9215 0017044  58.1240 346.3580 15.84179989  1140,6696.772,90.899,330.051,307.223,0.0
53603.0,STARLINK-4692,PAYLOAD,2022-09-04 14:00:01,15.83357028,0.0013502,53.2173,251.2467,55.2786,90.8955,-0.0059518999999999,-0.01190124,0.0,0 STARLINK-4692,1 53603U 22104R   22247.58335648 -.01190124  00000-0 -59519-2 0  9996,2 53603  53.2173 251.2467 0013502  55.2786  90.8955 15.83357028  1303,6699.092,90.946,330.0019999999999,311.9120000000001,0.0
53603.0,STARLINK-4692,PAYLOAD,2022-09-04 16:00:00,15.83164185,0.0013591,53.2173,250.8274,56.2943,205.0565,-0.0062438,-0.0123208,0.0,0 STARLINK-4692,1 53603U 22104R   22247.66667824 -.01232080  00000-0 -62438-2 0  9991,2 53603  53.2173 250.8274 0013591  56.2943 205.0565 15.83164185  1215,6699.636,90.957,330.606,312.395,0.0
53603.0,STARLINK-4692,PAYLOAD,2022-09-04 20:00:01,15.82698714,0.0011945,53.2176,249.9899,53.9601,77.7063,-0.0060756,-0.01176254,0.0,0 STARLINK-4692,1 53603U 22104R   22247.83334491 -.01176254  00000-0 -60756-2 0  9992,2 53603  53.2176 249.9899 0011945  53.9601  77.7063 15.82698714  1302,6700.949000000001,90.984,330.819,314.81,0.0
53603.0,STARLINK-4692,PAYLOAD,2022-09-05 04:00:00,15.81858853,0.0008327,53.2178,248.3191,48.1375,183.3461,-0.0066231,-0.01221435,0.0,0 STARLINK-4692,1 53603U 22104R   22248.16667824 -.01221435  00000-0 -66231-2 0  9994,2 53603  53.2178 248.3191 0008327  48.1375 183.3461 15.81858853  1291,6703.321,91.032,330.76800000000014,319.6040000000001,0.0
53603.0,STARLINK-4692,PAYLOAD,2022-09-05 14:00:01,15.80747806,0.0004967,53.2172,246.2327,36.7598,48.0504,-0.0067062,-0.01175884,0.0,0 STARLINK-4692,1 53603U 22104R   22248.58334491 -.01175884  00000-0 -67062-2 0  9990,2 53603  53.2172 246.2327 0004967  36.7598  48.0504 15.80747806  1300,6706.462,91.096,331.658,324.996,0.0
53603.0,STARLINK-4692,PAYLOAD,2022-09-05 20:00:01,15.80098449,0.0003927,53.2173,244.9808,24.3506,43.6684,-0.0069384,-0.0117919,0.0,0 STARLINK-4692,1 53603U 22104R   22248.83334491 -.01179190  00000-0 -69384-2 0  9991,2 53603  53.2173 244.9808 0003927  24.3506  43.6684 15.80098449  1309,6708.299,91.134,332.798,327.53,0.0
53603.0,STARLINK-4692,PAYLOAD,2022-09-06 04:00:00,15.79240375,0.0003259,53.2175,243.3165,9.9285,154.7843,-0.0073212,-0.01193703,0.0,0 STARLINK-4692,1 53603U 22104R   22249.16667824 -.01193703  00000-0 -73212-2 0  9998,2 53603  53.2175 243.3165 0003259   9.9285 154.7843 15.79240375  1453,6710.729,91.183,334.781,330.407,0.0
53603.0,STARLINK-4692,PAYLOAD,2022-09-06 14:00:01,15.7815783,0.0002751999999999,53.2173,241.238,8.4019,5.7161,-0.0077158,-0.01196668,0.0,0 STARLINK-4692,1 53603U 22104R   22249.58334491 -.01196668  00000-0 -77158-2 0  9991,2 53603  53.2173 241.2380 0002752   8.4019   5.7161 15.78157830  1307,6713.797,91.246,337.51,333.815,0.0
53603.0,STARLINK-4692,PAYLOAD,2022-09-06 20:00:01,15.77504284,0.0003003,53.2174,239.9908,5.1428,349.8387,-0.0079213,-0.01193338,0.0,0 STARLINK-4692,1 53603U 22104R   22249.83334491 -.01193338  00000-0 -79213-2 0  9994,2 53603  53.2174 239.9908 0003003   5.1428 349.8387 15.77504284  1553,6715.651,91.283,339.533,335.5,0.0
53603.0,STARLINK-4692,PAYLOAD,2022-09-06 22:00:00,15.77288311,0.000314,53.2175,239.5756,7.8929,100.5782,-0.0080081,-0.01194663,0.0,0 STARLINK-4692,1 53603U 22104R   22249.91667824 -.01194663  00000-0 -80081-2 0  9999,2 53603  53.2175 239.5756 0003140   7.8929 100.5782 15.77288311  1302,6716.264,91.296,340.23800000000006,336.02,0.0
53603.0,STARLINK-4692,PAYLOAD,2022-09-07 12:00:00,15.75773868,0.0001541999999999,53.2171,236.677,347.0186,194.0548,-0.0086207,-0.01200169,0.0,0 STARLINK-4692,1 53603U 22104R   22250.50001157 -.01200169  00000-0 -86207-2 0  9992,2 53603  53.2171 236.6770 0001542 347.0186 194.0548 15.75773868  1661,6720.566999999999,91.384,343.468,341.396,0.0
53603.0,STARLINK-4692,PAYLOAD,2022-09-07 14:00:01,15.75600432,0.0001173,53.2167,236.2622,9.4939,284.5273,-0.0091425,-0.01278105,0.0,0 STARLINK-4692,1 53603U 22104R   22250.58334491 -.01278105  00000-0 -91425-2 0  9993,2 53603  53.2167 236.2622 0001173   9.4939 284.5273 15.75600432  1300,6721.06,91.394,343.714,342.13699999999994,0.0
53603.0,STARLINK-4692,PAYLOAD,2022-09-07 22:00:00,15.74685011,0.0001492,53.2173,234.6067,31.0652,354.202,-0.0090051,-0.01195452,0.0,0 STARLINK-4692,1 53603U 22104R   22250.91667824 -.01195452  00000-0 -90051-2 0  9996,2 53603  53.2173 234.6067 0001492  31.0652 354.2020 15.74685011  1309,6723.665,91.447,346.533,344.526,0.0
53603.0,STARLINK-4692,PAYLOAD,2022-09-08 04:00:00,15.7389211,0.0001341,53.2172,233.3687,44.6121,318.4084,-0.0056748999999999,-0.00751657,0.0,0 STARLINK-4692,1 53603U 22104R   22251.16667824 -.00751657  00000-0 -56749-2 0  9994,2 53603  53.2172 233.3687 0001341  44.6121 318.4084 15.73892110  1767,6725.9230000000025,91.493,348.69,346.886,0.0
53603.0,STARLINK-4692,PAYLOAD,2022-09-08 14:00:01,15.73204384,0.0001296,53.2174,231.3058,55.7657,148.9444,-1.4542e-05,-2.661e-05,0.0,0 STARLINK-4692,1 53603U 22104R   22251.58334491 -.00002661  00000-0 -14542-4 0  9992,2 53603  53.2174 231.3058 0001296  55.7657 148.9444 15.73204384  1301,6727.8830000000025,91.533,350.62,348.876,0.0
53603.0,STARLINK-4692,PAYLOAD,2022-09-08 22:00:00,15.73135923,0.0001118,53.2164,229.6536,60.0342,233.4608,0.002226,0.00323227,0.0,0 STARLINK-4692,1 53603U 22104R   22251.91667824  .00323227  00000-0  22260-2 0  9994,2 53603  53.2164 229.6536 0001118  60.0342 233.4608 15.73135923  1881,6728.078,91.537,350.695,349.191,0.0
53603.0,STARLINK-4692,PAYLOAD,2022-09-09 04:00:00,15.73278547,0.0001158,53.2151,228.4177,50.4154,219.7959,-7.9342e-05,-0.00011777,0.0,0 STARLINK-4692,1 53603U 22104R   22252.16667824 -.00011777  00000-0 -79342-4 0  9993,2 53603  53.2151 228.4177 0001158  50.4154 219.7959 15.73278547  1924,6727.670999999999,91.529,350.315,348.75699999999995,0.0
53603.0,STARLINK-4692,PAYLOAD,2022-09-09 14:00:01,15.73281823,0.0001216,53.2148,226.3549,55.5791,55.9141,-0.00010967,-0.00016036,0.0,0 STARLINK-4692,1 53603U 22104R   22252.58334491 -.00016036  00000-0 -10967-3 0  9990,2 53603  53.2148 226.3549 0001216  55.5791  55.9141 15.73281823  1304,6727.6619999999975,91.528,350.345,348.709,0.0
53603.0,STARLINK-4692,PAYLOAD,2022-09-09 22:00:00,15.73278814,0.0001081,53.2152,224.704,67.0799,133.4342,-0.00033458,-0.00047469,0.0,0 STARLINK-4692,1 53603U 22104R   22252.91667824 -.00047469  00000-0 -33458-3 0  9990,2 53603  53.2152 224.7040 0001081  67.0799 133.4342 15.73278814  1304,6727.67,91.529,350.26300000000015,348.80800000000005,0.0
53603.0,STARLINK-4692,PAYLOAD,2022-09-10 04:00:00,15.73243598,0.0001190999999999,53.2156,223.4689,55.0953,122.1523,-0.00071893,-0.00100506,0.0,0 STARLINK-4692,1 53603U 22104R   22253.16667824 -.00100506  00000-0 -71893-3 0  9995,2 53603  53.2156 223.4689 0001191  55.0953 122.1523 15.73243598  2087,6727.771,91.531,350.43699999999984,348.835,0.0
53603.0,STARLINK-4692,PAYLOAD,2022-09-10 12:00:00,15.73195934,0.0001167999999999,53.2154,221.8188,53.4962,212.6862,-0.00048136,-0.00067622,0.0,0 STARLINK-4692,1 53603U 22104R   22253.50001157 -.00067622  00000-0 -48136-3 0  9999,2 53603  53.2154 221.8188 0001168  53.4962 212.6862 15.73195934  2134,6727.906999999997,91.533,350.55800000000005,348.986,0.0
53603.0,STARLINK-4692,PAYLOAD,2022-09-10 14:00:01,15.73181075,0.0001154,53.2157,221.406,57.6553,320.7569,-0.00036248,-0.00051141,0.0,0 STARLINK-4692,1 53603U 22104R   22253.58334491 -.00051141  00000-0 -36248-3 0  9997,2 53603  53.2157 221.4060 0001154  57.6553 320.7569 15.73181075  1303,6727.949000000001,91.534,350.591,349.038,0.0
53603.0,STARLINK-4692,PAYLOAD,2022-09-10 20:00:01,15.73126615,0.0001198,53.2156,220.1677,67.4024,287.6811,0.00072612,0.00102211,0.0,0 STARLINK-4692,1 53603U 22104R   22253.83334491  .00102211  00000-0  72612-3 0  9993,2 53603  53.2156 220.1677 0001198  67.4024 287.6811 15.73126615  2189,6728.104,91.537,350.775,349.163,0.0
